SAUDISAT 1C             
1 27607U 02058C   23031.19491878  .00001315  00000+0  19838-3 0  9994
2 27607  64.5559 324.7469 0078955 251.2840 107.9682 14.76680318 81993
SAUDISAT 2              
1 28371U 04025F   23031.45247523  .00000487  00000+0  12430-3 0  9994
2 28371  98.4117 354.0582 0026192 121.8390 238.5360 14.54725844986435
SAUDISAT 3              
1 31118U 07012B   23031.42906937  .00000390  00000+0  73864-4 0  9996
2 31118  97.9980 338.3142 0014856 184.8553 175.2511 14.69491851846581
PISAT                   
1 41784U 16059B   23031.34301846  .00000828  00000+0  16473-3 0  9994
2 41784  97.8886  70.5015 0031882 166.3564 193.8508 14.64264014339037
FLYING LAPTOP           
1 42831U 17042G   23031.54931863  .00001395  00000+0  14105-3 0  9991
2 42831  97.3999 237.4929 0013084 330.2455  29.7979 14.92420568302100
SALSAT                  
1 46495U 20068K   23031.53337477  .00004501  00000+0  31285-3 0  9993
2 46495  97.7549 338.3952 0015001 219.8838 140.1287 15.05953988128490
